[{"OBJECT_NAME":"ONEWEB-0341","OBJECT_ID":"2021-083X","EPOCH":"2026-03-09T19:38:30.339744","MEAN_MOTION":13.18686433,"ECCENTRICITY":0.00022517,"INCLINATION":87.9245,"RA_OF_ASC_NODE":355.1979,"ARG_OF_PERICENTER":71.5447,"MEAN_ANOMALY":288.593,"EPHEMERIS_TYPE":0,"CLASSIFICATION_TYPE":"U","NORAD_CAT_ID":49207,"ELEMENT_SET_NO":999,"REV_AT_EPOCH":21689,"BSTAR":5.670172e-6,"MEAN_MOTION_DOT":1.5e-7,"MEAN_MOTION_DDOT":0},{"OBJECT_NAME":"FENGYUN 1C DEB","OBJECT_ID":"1999-025CPT","EPOCH":"2026-03-07T13:28:03.366048","MEAN_MOTION":13.57252969,"ECCENTRICITY":0.0259156,"INCLINATION":99.1549,"RA_OF_ASC_NODE":88.2947,"ARG_OF_PERICENTER":327.6522,"MEAN_ANOMALY":186.6788,"EPHEMERIS_TYPE":0,"CLASSIFICATION_TYPE":"U","NORAD_CAT_ID":31990,"ELEMENT_SET_NO":999,"REV_AT_EPOCH":63922,"BSTAR":0.00035253,"MEAN_MOTION_DOT":2.71e-6,"MEAN_MOTION_DDOT":0}]
